CCSDS_OMM_VERS = 2.0
CREATION_DATE  = 
ORIGINATOR     = 

OBJECT_NAME    = ISS OBJECT XY
OBJECT_ID      = 1998-067XY
CENTER_NAME    = EARTH
REF_FRAME      = TEME
TIME_SYSTEM    = UTC
MEAN_ELEMENT_THEORY = SGP/SGP4

EPOCH          = 2026-03-14T22:45:17.273376
MEAN_MOTION    = 15.64801890
ECCENTRICITY   = .00034365
INCLINATION    = 51.6268
RA_OF_ASC_NODE = 40.5165
ARG_OF_PERICENTER = 120.1038
MEAN_ANOMALY   = 240.0298

EPHEMERIS_TYPE = 0
CLASSIFICATION_TYPE = U
NORAD_CAT_ID   = 66912
ELEMENT_SET_NO = 999
REV_AT_EPOCH   = 1597
BSTAR          = .11443978E-2
MEAN_MOTION_DOT = .114837E-2
MEAN_MOTION_DDOT = 0

CCSDS_OMM_VERS = 2.0
CREATION_DATE  = 
ORIGINATOR     = 

OBJECT_NAME    = KNACKSAT-2
OBJECT_ID      = 1998-067XZ
CENTER_NAME    = EARTH
REF_FRAME      = TEME
TIME_SYSTEM    = UTC
MEAN_ELEMENT_THEORY = SGP/SGP4

EPOCH          = 2026-03-15T04:48:46.736352
MEAN_MOTION    = 15.52323412
ECCENTRICITY   = .00095785
INCLINATION    = 51.6309
RA_OF_ASC_NODE = 44.4573
ARG_OF_PERICENTER = 205.3064
MEAN_ANOMALY   = 154.7457

EPHEMERIS_TYPE = 0
CLASSIFICATION_TYPE = U
NORAD_CAT_ID   = 67683
ELEMENT_SET_NO = 999
REV_AT_EPOCH   = 564
BSTAR          = .7682884E-3
MEAN_MOTION_DOT = .47534E-3
MEAN_MOTION_DDOT = 0

CCSDS_OMM_VERS = 2.0
CREATION_DATE  = 
ORIGINATOR     = 

OBJECT_NAME    = GXIBA-1
OBJECT_ID      = 1998-067YA
CENTER_NAME    = EARTH
REF_FRAME      = TEME
TIME_SYSTEM    = UTC
MEAN_ELEMENT_THEORY = SGP/SGP4

EPOCH          = 2026-03-15T03:55:34.712544
MEAN_MOTION    = 15.55303960
ECCENTRICITY   = .00116134
INCLINATION    = 51.6308
RA_OF_ASC_NODE = 44.2101
ARG_OF_PERICENTER = 194.5368
MEAN_ANOMALY   = 165.5291

EPHEMERIS_TYPE = 0
CLASSIFICATION_TYPE = U
NORAD_CAT_ID   = 67684
ELEMENT_SET_NO = 999
REV_AT_EPOCH   = 564
BSTAR          = .1289316E-2
MEAN_MOTION_DOT = .8987E-3
MEAN_MOTION_DDOT = 0

CCSDS_OMM_VERS = 2.0
CREATION_DATE  = 
ORIGINATOR     = 

OBJECT_NAME    = CORAL
OBJECT_ID      = 1998-067YB
CENTER_NAME    = EARTH
REF_FRAME      = TEME
TIME_SYSTEM    = UTC
MEAN_ELEMENT_THEORY = SGP/SGP4

EPOCH          = 2026-03-15T04:40:23.786400
MEAN_MOTION    = 15.52739690
ECCENTRICITY   = .00115347
INCLINATION    = 51.6319
RA_OF_ASC_NODE = 44.4177
ARG_OF_PERICENTER = 201.7026
MEAN_ANOMALY   = 158.3476

EPHEMERIS_TYPE = 0
CLASSIFICATION_TYPE = U
NORAD_CAT_ID   = 67685
ELEMENT_SET_NO = 999
REV_AT_EPOCH   = 564
BSTAR          = .82450602E-3
MEAN_MOTION_DOT = .51896E-3
MEAN_MOTION_DDOT = 0

CCSDS_OMM_VERS = 2.0
CREATION_DATE  = 
ORIGINATOR     = 

OBJECT_NAME    = ISS OBJECT YC
OBJECT_ID      = 1998-067YC
CENTER_NAME    = EARTH
REF_FRAME      = TEME
TIME_SYSTEM    = UTC
MEAN_ELEMENT_THEORY = SGP/SGP4

EPOCH          = 2026-03-15T04:29:24.271008
MEAN_MOTION    = 15.53399872
ECCENTRICITY   = .0008363
INCLINATION    = 51.6317
RA_OF_ASC_NODE = 44.3691
ARG_OF_PERICENTER = 170.9974
MEAN_ANOMALY   = 189.1167

EPHEMERIS_TYPE = 0
CLASSIFICATION_TYPE = U
NORAD_CAT_ID   = 67686
ELEMENT_SET_NO = 999
REV_AT_EPOCH   = 564
BSTAR          = .96936281E-3
MEAN_MOTION_DOT = .62587E-3
MEAN_MOTION_DDOT = 0

CCSDS_OMM_VERS = 2.0
CREATION_DATE  = 
ORIGINATOR     = 

OBJECT_NAME    = LEOPARD
OBJECT_ID      = 1998-067YD
CENTER_NAME    = EARTH
REF_FRAME      = TEME
TIME_SYSTEM    = UTC
MEAN_ELEMENT_THEORY = SGP/SGP4

EPOCH          = 2026-03-15T06:17:08.114208
MEAN_MOTION    = 15.52527164
ECCENTRICITY   = .00081426
INCLINATION    = 51.6313
RA_OF_ASC_NODE = 44.1193
ARG_OF_PERICENTER = 174.4595
MEAN_ANOMALY   = 185.6486

EPHEMERIS_TYPE = 0
CLASSIFICATION_TYPE = U
NORAD_CAT_ID   = 67687
ELEMENT_SET_NO = 999
REV_AT_EPOCH   = 557
BSTAR          = .76143322E-3
MEAN_MOTION_DOT = .4743E-3
MEAN_MOTION_DDOT = 0

CCSDS_OMM_VERS = 2.0
CREATION_DATE  = 
ORIGINATOR     = 

OBJECT_NAME    = ISS OBJECT YE
OBJECT_ID      = 1998-067YE
CENTER_NAME    = EARTH
REF_FRAME      = TEME
TIME_SYSTEM    = UTC
MEAN_ELEMENT_THEORY = SGP/SGP4

EPOCH          = 2026-03-15T04:34:24.545568
MEAN_MOTION    = 15.53094941
ECCENTRICITY   = .00082552
INCLINATION    = 51.6315
RA_OF_ASC_NODE = 44.3921
ARG_OF_PERICENTER = 171.8524
MEAN_ANOMALY   = 188.2602

EPHEMERIS_TYPE = 0
CLASSIFICATION_TYPE = U
NORAD_CAT_ID   = 67688
ELEMENT_SET_NO = 999
REV_AT_EPOCH   = 556
BSTAR          = .89872899E-3
MEAN_MOTION_DOT = .57311E-3
MEAN_MOTION_DDOT = 0

CCSDS_OMM_VERS = 2.0
CREATION_DATE  = 
ORIGINATOR     = 

OBJECT_NAME    = CREW DRAGON 12
OBJECT_ID      = 2026-031A
CENTER_NAME    = EARTH
REF_FRAME      = TEME
TIME_SYSTEM    = UTC
MEAN_ELEMENT_THEORY = SGP/SGP4

EPOCH          = 2026-03-15T04:37:08.870592
MEAN_MOTION    = 15.48288531
ECCENTRICITY   = .00063636
INCLINATION    = 51.6330
RA_OF_ASC_NODE = 45.1519
ARG_OF_PERICENTER = 192.7288
MEAN_ANOMALY   = 167.3540

EPHEMERIS_TYPE = 0
CLASSIFICATION_TYPE = U
NORAD_CAT_ID   = 67796
ELEMENT_SET_NO = 999
REV_AT_EPOCH   = 55708
BSTAR          = .1887181E-3
MEAN_MOTION_DOT = .9711E-4
MEAN_MOTION_DDOT = 0

